NORAD_CAT_ID,OBJECT_NAME,OBJECT_TYPE,EPOCH,MEAN_MOTION,ECCENTRICITY,INCLINATION,RA_OF_ASC_NODE,ARG_OF_PERICENTER,MEAN_ANOMALY,BSTAR,MEAN_MOTION_DOT,MEAN_MOTION_DDOT,TLE_LINE0,TLE_LINE1,TLE_LINE2,SEMIMAJOR_AXIS,PERIOD,APOGEE,PERIGEE,DECAYED
53552.0,STARLINK-4495,PAYLOAD,2024-06-09 23:21:26,15.08830528,0.0001366,53.2179,46.9457,100.8704,259.2442,5.9381e-05,6.57e-06,0.0,0 STARLINK-4495,1 53552U 22101AB  24161.97322528  .00000657  00000-0  59381-4 0  9996,2 53552  53.2179  46.9457 0001366 100.8704 259.2442 15.08830528100683,6917.909,95.438,540.719,538.829,0.0
53552.0,STARLINK-4495,PAYLOAD,2024-06-10 08:53:45,15.08837227,0.0001199,53.2183,45.1617,98.2334,261.8794,-2.4211e-05,-6.73e-06,0.0,0 STARLINK-4495,1 53552U 22101AB  24162.37066465 -.00000673  00000-0 -24211-4 0  9990,2 53552  53.2183  45.1617 0001199  98.2334 261.8794 15.08837227100749,6917.889,95.438,540.583,538.924,0.0
53552.0,STARLINK-4495,PAYLOAD,2024-06-10 20:01:27,15.08846247,0.0001242,53.2176,43.0788,88.284,271.8294,-9.6396e-05,-1.822e-05,0.0,0 STARLINK-4495,1 53552U 22101AB  24162.83434180 -.00001822  00000-0 -96396-4 0  9994,2 53552  53.2176  43.0788 0001242  88.2840 271.8294 15.08846247100161,6917.861,95.437,540.585,538.867,0.0
53552.0,STARLINK-4495,PAYLOAD,2024-06-10 23:12:12,15.08853128,0.0001263,53.2179,42.4864,93.9422,266.1714,-7.4581e-05,-1.475e-05,0.0,0 STARLINK-4495,1 53552U 22101AB  24162.96681601 -.00001475  00000-0 -74581-4 0  9996,2 53552  53.2179  42.4864 0001263  93.9422 266.1714 15.08853128100838,6917.84,95.437,540.579,538.832,0.0
53552.0,STARLINK-4495,PAYLOAD,2024-06-11 08:44:31,15.08854669,0.0001257,53.2182,40.7022,92.9108,267.2028,-3.5419e-05,-8.52e-06,0.0,0 STARLINK-4495,1 53552U 22101AB  24163.36425135 -.00000852  00000-0 -35419-4 0  9994,2 53552  53.2182  40.7022 0001257  92.9108 267.2028 15.08854669100899,6917.836,95.437,540.57,538.831,0.0
53552.0,STARLINK-4495,PAYLOAD,2024-06-12 00:38:23,15.0883181,0.0001591,53.2194,37.73,98.5912,261.5261,9.3795e-05,1.205e-05,0.0,0 STARLINK-4495,1 53552U 22101AB  24164.02666556  .00001205  00000-0  93795-4 0  9994,2 53552  53.2194  37.7300 0001591  98.5912 261.5261 15.08831810100342,6917.905,95.438,540.871,538.67,0.0
53552.0,STARLINK-4495,PAYLOAD,2024-06-12 21:18:24,15.08840297,0.0001494,53.2174,33.86,98.6165,261.4996,-1.9243e-05,-5.94e-06,0.0,0 STARLINK-4495,1 53552U 22101AB  24164.88778631 -.00000594  00000-0 -19243-4 0  9994,2 53552  53.2174  33.8600 0001494  98.6165 261.4996 15.08840297101123,6917.879,95.438,540.778,538.711,0.0
53552.0,STARLINK-4495,PAYLOAD,2024-06-13 00:29:10,15.08848461,0.0001466,53.2183,33.265,85.6636,274.4523,-5.0655e-06,-3.69e-06,0.0,0 STARLINK-4495,1 53552U 22101AB  24165.02026128 -.00000369  00000-0 -50655-5 0  9991,2 53552  53.2183  33.2650 0001466  85.6636 274.4523 15.08848461100490,6917.855,95.437,540.734,538.705,0.0
53552.0,STARLINK-4495,PAYLOAD,2024-06-13 08:26:06,15.08841751,0.0001375,53.2178,31.7797,82.7728,277.3421,2.7401e-06,-2.44e-06,0.0,0 STARLINK-4495,1 53552U 22101AB  24165.35146475 -.00000244  00000-0  27401-5 0  9999,2 53552  53.2178  31.7797 0001375  82.7728 277.3421 15.08841751100548,6917.875,95.437,540.691,538.789,0.0
53552.0,STARLINK-4495,PAYLOAD,2024-06-13 22:44:34,15.08841524,0.000132,53.2182,29.1037,93.026,267.0883,6.5841e-05,7.6e-06,0.0,0 STARLINK-4495,1 53552U 22101AB  24165.94762344  .00000760  00000-0  65841-4 0  9994,2 53552  53.2182  29.1037 0001320  93.0260 267.0883 15.08841524101285,6917.876,95.437,540.654,538.828,0.0
53552.0,STARLINK-4495,PAYLOAD,2024-06-14 08:16:53,15.0884263,0.0001213,53.2171,27.3189,98.3673,261.7457,7.3951e-05,8.89e-06,0.0,0 STARLINK-4495,1 53552U 22101AB  24166.34506158  .00000889  00000-0  73951-4 0  9991,2 53552  53.2171  27.3189 0001213  98.3673 261.7457 15.08842630101342,6917.872,95.437,540.576,538.898,0.0
53552.0,STARLINK-4495,PAYLOAD,2024-06-14 20:59:58,15.08846327,0.0001388,53.2178,24.9401,87.7124,272.4027,7.3257e-05,8.78e-06,0.0,0 STARLINK-4495,1 53552U 22101AB  24166.87498023  .00000878  00000-0  73257-4 0  9997,2 53552  53.2178  24.9401 0001388  87.7124 272.4027 15.08846327101423,6917.861,95.437,540.686,538.766,0.0
53552.0,STARLINK-4495,PAYLOAD,2024-06-15 08:07:40,15.0884815,0.0001268,53.2174,22.8585,94.5613,265.5524,2.7409e-05,1.48e-06,0.0,0 STARLINK-4495,1 53552U 22101AB  24167.33865794  .00000148  00000-0  27409-4 0  9990,2 53552  53.2174  22.8585 0001268  94.5613 265.5524 15.08848150101493,6917.855,95.437,540.598,538.843,0.0
53552.0,STARLINK-4495,PAYLOAD,2024-06-15 20:50:45,15.08844966,0.0001557,53.2187,20.4796,90.6762,269.4409,8.9606e-06,-1.45e-06,0.0,0 STARLINK-4495,1 53552U 22101AB  24167.86858161 -.00000145  00000-0  89606-5 0  9994,2 53552  53.2187  20.4796 0001557  90.6762 269.4409 15.08844966101573,6917.865,95.437,540.807,538.653,0.0
53552.0,STARLINK-4495,PAYLOAD,2024-06-16 14:20:00,15.08839028,0.0001528,53.2193,17.2078,96.868,263.2486,-1.2094e-05,-4.8e-06,0.0,0 STARLINK-4495,1 53552U 22101AB  24168.59722509 -.00000480  00000-0 -12094-4 0  9990,2 53552  53.2193  17.2078 0001528  96.8680 263.2486 15.08839028101684,6917.883,95.438,540.805,538.691,0.0
53552.0,STARLINK-4495,PAYLOAD,2024-06-16 20:41:32,15.08841264,0.0001491,53.219,16.0186,96.3322,263.784,7.7926e-06,-1.64e-06,0.0,0 STARLINK-4495,1 53552U 22101AB  24168.86218295 -.00000164  00000-0  77926-5 0  9996,2 53552  53.2190  16.0186 0001491  96.3322 263.7840 15.08841264101724,6917.877,95.437,540.773,538.71,0.0
53552.0,STARLINK-4495,PAYLOAD,2024-06-17 20:32:20,15.08836383,0.0001485,53.2186,11.5621,94.6824,265.4338,-3.2797e-05,-8.1e-06,0.0,0 STARLINK-4495,1 53552U 22101AB  24169.85578989 -.00000810  00000-0 -32797-4 0  9990,2 53552  53.2186  11.5621 0001485  94.6824 265.4338 15.08836383101226,6917.891,95.438,540.784,538.729,0.0
53552.0,STARLINK-4495,PAYLOAD,2024-06-18 06:04:39,15.08838072,0.0001499,53.2187,9.7778,95.0811,265.0352,-3.044e-05,-7.72e-06,0.0,0 STARLINK-4495,1 53552U 22101AB  24170.25322949 -.00000772  00000-0 -30440-4 0  9999,2 53552  53.2187   9.7778 0001499  95.0811 265.0352 15.08838072101932,6917.886,95.438,540.788,538.714,0.0
53552.0,STARLINK-4495,PAYLOAD,2024-06-18 20:23:06,15.08839379,0.0001438,53.218,7.1011,99.3517,260.7637,9.7186e-05,1.259e-05,0.0,0 STARLINK-4495,1 53552U 22101AB  24170.84938551  .00001259  00000-0  97186-4 0  9995,2 53552  53.2180   7.1011 0001438  99.3517 260.7637 15.08839379102020,6917.882,95.438,540.742,538.752,0.0
53552.0,STARLINK-4495,PAYLOAD,2024-06-18 23:33:52,15.08845131,0.0001446,53.2183,6.5044,92.3578,267.758,0.00011191,1.494e-05,0.0,0 STARLINK-4495,1 53552U 22101AB  24170.98186132  .00001494  00000-0  11191-3 0  9992,2 53552  53.2183   6.5044 0001446  92.3578 267.7580 15.08845131101397,6917.865,95.437,540.73,538.729,0.0
53552.0,STARLINK-4495,PAYLOAD,2024-06-19 05:55:25,15.08840763,0.0001184,53.2165,5.312,76.7994,283.3131,5.1575e-05,5.33e-06,0.0,0 STARLINK-4495,1 53552U 22101AB  24171.24682486  .00000533  00000-0  51575-4 0  9999,2 53552  53.2165   5.3120 0001184  76.7994 283.3131 15.08840763102085,6917.878,95.438,540.562,538.924,0.0
53552.0,STARLINK-4495,PAYLOAD,2024-06-19 20:13:54,15.08831903,0.0001419,53.2177,2.6402,87.3933,272.7222,1.0701e-05,-1.18e-06,0.0,0 STARLINK-4495,1 53552U 22101AB  24171.84299606 -.00000118  00000-0  10701-4 0  9999,2 53552  53.2177   2.6402 0001419  87.3933 272.7222 15.08831903101520,6917.905,95.438,540.752,538.788,0.0
53552.0,STARLINK-4495,PAYLOAD,2024-06-20 21:40:04,15.08845119,0.0001403,53.2181,357.8831,90.3815,269.7338,6.3873e-05,7.29e-06,0.0,0 STARLINK-4495,1 53552U 22101AB  24172.90282844  .00000729  00000-0  63873-4 0  9998,2 53552  53.2181 357.8831 0001403  90.3815 269.7338 15.08845119101687,6917.865,95.437,540.7,538.759,0.0
53552.0,STARLINK-4495,PAYLOAD,2024-06-21 11:58:33,15.0883587,0.0001449,53.2181,355.2066,91.7646,268.3512,7.2994e-05,8.74e-06,0.0,0 STARLINK-4495,1 53552U 22101AB  24173.49899434  .00000874  00000-0  72994-4 0  9997,2 53552  53.2181 355.2066 0001449  91.7646 268.3512 15.08835870101778,6917.893,95.438,540.76,538.756,0.0
53552.0,STARLINK-4495,PAYLOAD,2024-06-21 18:20:05,15.08838985,0.0001456,53.2181,354.0169,82.9661,277.1496,6.6428e-05,7.69e-06,0.0,0 STARLINK-4495,1 53552U 22101AB  24173.76395375  .00000769  00000-0  66428-4 0  9990,2 53552  53.2181 354.0169 0001456  82.9661 277.1496 15.08838985102462,6917.883,95.438,540.756,538.741,0.0
53552.0,STARLINK-4495,PAYLOAD,2024-06-22 18:10:52,15.08844014,0.0001455,53.2183,349.5568,86.6975,273.4183,2.2187e-05,6.5e-07,0.0,0 STARLINK-4495,1 53552U 22101AB  24174.75755205  .00000065  00000-0  22187-4 0  9995,2 53552  53.2183 349.5568 0001455  86.6975 273.4183 15.08844014101960,6917.868,95.437,540.74,538.727,0.0
53552.0,STARLINK-4495,PAYLOAD,2024-06-22 21:21:38,15.08847991,0.000131,53.2174,348.9606,93.1349,266.9793,4.59e-05,4.43e-06,0.0,0 STARLINK-4495,1 53552U 22101AB  24174.89002763  .00000443  00000-0  45900-4 0  9992,2 53552  53.2174 348.9606 0001310  93.1349 266.9793 15.08847991102630,6917.856,95.437,540.627,538.815,0.0
53552.0,STARLINK-4495,PAYLOAD,2024-06-23 11:40:07,15.08803868,0.0001518,53.2189,346.2787,93.4291,266.6875,0.00042504,6.476e-05,0.0,0 STARLINK-4495,1 53552U 22101AB  24175.48620010  .00006476  00000-0  42504-3 0  9997,2 53552  53.2189 346.2787 0001518  93.4291 266.6875 15.08803868102077,6917.991,95.44,540.906,538.806,0.0
53552.0,STARLINK-4495,PAYLOAD,2024-06-23 18:01:40,15.08820433,0.0001348,53.2187,345.0907,84.7647,275.3499,0.00031358,4.704e-05,0.0,0 STARLINK-4495,1 53552U 22101AB  24175.75115769  .00004704  00000-0  31358-3 0  9994,2 53552  53.2187 345.0907 0001348  84.7647 275.3499 15.08820433102116,6917.94,95.439,540.738,538.873,0.0
53552.0,STARLINK-4495,PAYLOAD,2024-06-23 21:12:25,15.08845031,0.0001414,53.2185,344.4962,97.0368,263.0785,-9.3953e-06,-4.37e-06,0.0,0 STARLINK-4495,1 53552U 22101AB  24175.88363035 -.00000437  00000-0 -93953-5 0  9991,2 53552  53.2185 344.4962 0001414  97.0368 263.0785 15.08845031102785,6917.865,95.437,540.708,538.752,0.0
